ONEWEB-0264             
1 48982U 21060R   24102.81215542  .00000042  00000+0  76054-4 0  9998
2 48982  87.9152  27.2949 0001795  78.4096 281.7236 13.16592555134801
ONEWEB-0266             
1 48984U 21060T   24103.21352589  .00000002  00000+0 -28183-4 0  9995
2 48984  87.9147  27.1944 0001975  81.8849 278.2506 13.16596596136144
ONEWEB-0267             
1 48985U 21060U   24103.22459091  .00000061  00000+0  12633-3 0  9999
2 48985  87.9148  27.1936 0001427  74.6172 285.5117 13.16597451136148
ONEWEB-0268             
1 48986U 21060V   24102.81294943  .00000113  00000+0  26311-3 0  9993
2 48986  87.9149  27.2811 0001788  74.3476 285.7852 13.16596793135063
ONEWEB-0269             
1 48987U 21060W   24102.86994917  .00000081  00000+0  17740-3 0  9997
2 48987  87.9154  27.2933 0001968  76.6643 283.4707 13.16592617134846
ONEWEB-0270             
1 48988U 21060X   24102.81136242  .00000049  00000+0  95458-4 0  9999
2 48988  87.9149  27.2906 0001389  92.6692 267.4598 13.16592268134875
ONEWEB-0271             
1 48989U 21060Y   24102.87469657  .00000008  00000+0 -12937-4 0  9992
2 48989  87.9152  27.2537 0001427  80.8789 279.2504 13.16592623134883
ONEWEB-0272             
1 48990U 21060Z   24103.35285015  .00000014  00000+0  22793-5 0  9990
2 48990  87.9151  27.1869 0001567  78.6492 281.4815 13.16593069136193
