<?xml version="1.0" encoding="UTF-8"?>
<ndm xmlns:xsi="http://www.w3.org/2001/XMLSchema-instance" xsi:noNamespaceSchemaLocation="https://sanaregistry.org/r/ndmxml_unqualified/ndmxml-2.0.0-master-2.0.xsd">
<omm id="CCSDS_OMM_VERS" version="2.0">
<header><CREATION_DATE/><ORIGINATOR/></header><body><segment><metadata><OBJECT_NAME>ONEWEB-0264</OBJECT_NAME><OBJECT_ID>2021-060R</OBJECT_ID><CENTER_NAME>EARTH</CENTER_NAME><REF_FRAME>TEME</REF_FRAME><TIME_SYSTEM>UTC</TIME_SYSTEM><MEAN_ELEMENT_THEORY>SGP4</MEAN_ELEMENT_THEORY></metadata><data><meanElements><EPOCH>2024-04-11T19:29:30.228288</EPOCH><MEAN_MOTION>13.16592555</MEAN_MOTION><ECCENTRICITY>.0001795</ECCENTRICITY><INCLINATION>87.9152</INCLINATION><RA_OF_ASC_NODE>27.2949</RA_OF_ASC_NODE><ARG_OF_PERICENTER>78.4096</ARG_OF_PERICENTER><MEAN_ANOMALY>281.7236</MEAN_ANOMALY></meanElements><tleParameters><EPHEMERIS_TYPE>0</EPHEMERIS_TYPE><CLASSIFICATION_TYPE>U</CLASSIFICATION_TYPE><NORAD_CAT_ID>48982</NORAD_CAT_ID><ELEMENT_SET_NO>999</ELEMENT_SET_NO><REV_AT_EPOCH>13480</REV_AT_EPOCH><BSTAR>.76054E-4</BSTAR><MEAN_MOTION_DOT>.42E-6</MEAN_MOTION_DOT><MEAN_MOTION_DDOT>0</MEAN_MOTION_DDOT></tleParameters></data></segment></body></omm>
<omm id="CCSDS_OMM_VERS" version="2.0">
<header><CREATION_DATE/><ORIGINATOR/></header><body><segment><metadata><OBJECT_NAME>ONEWEB-0266</OBJECT_NAME><OBJECT_ID>2021-060T</OBJECT_ID><CENTER_NAME>EARTH</CENTER_NAME><REF_FRAME>TEME</REF_FRAME><TIME_SYSTEM>UTC</TIME_SYSTEM><MEAN_ELEMENT_THEORY>SGP4</MEAN_ELEMENT_THEORY></metadata><data><meanElements><EPOCH>2024-04-12T05:07:28.636896</EPOCH><MEAN_MOTION>13.16596596</MEAN_MOTION><ECCENTRICITY>.0001975</ECCENTRICITY><INCLINATION>87.9147</INCLINATION><RA_OF_ASC_NODE>27.1944</RA_OF_ASC_NODE><ARG_OF_PERICENTER>81.8849</ARG_OF_PERICENTER><MEAN_ANOMALY>278.2506</MEAN_ANOMALY></meanElements><tleParameters><EPHEMERIS_TYPE>0</EPHEMERIS_TYPE><CLASSIFICATION_TYPE>U</CLASSIFICATION_TYPE><NORAD_CAT_ID>48984</NORAD_CAT_ID><ELEMENT_SET_NO>999</ELEMENT_SET_NO><REV_AT_EPOCH>13614</REV_AT_EPOCH><BSTAR>-.28183E-4</BSTAR><MEAN_MOTION_DOT>.2E-7</MEAN_MOTION_DOT><MEAN_MOTION_DDOT>0</MEAN_MOTION_DDOT></tleParameters></data></segment></body></omm>
<omm id="CCSDS_OMM_VERS" version="2.0">
<header><CREATION_DATE/><ORIGINATOR/></header><body><segment><metadata><OBJECT_NAME>ONEWEB-0267</OBJECT_NAME><OBJECT_ID>2021-060U</OBJECT_ID><CENTER_NAME>EARTH</CENTER_NAME><REF_FRAME>TEME</REF_FRAME><TIME_SYSTEM>UTC</TIME_SYSTEM><MEAN_ELEMENT_THEORY>SGP4</MEAN_ELEMENT_THEORY></metadata><data><meanElements><EPOCH>2024-04-12T05:23:24.654624</EPOCH><MEAN_MOTION>13.16597451</MEAN_MOTION><ECCENTRICITY>.0001427</ECCENTRICITY><INCLINATION>87.9148</INCLINATION><RA_OF_ASC_NODE>27.1936</RA_OF_ASC_NODE><ARG_OF_PERICENTER>74.6172</ARG_OF_PERICENTER><MEAN_ANOMALY>285.5117</MEAN_ANOMALY></meanElements><tleParameters><EPHEMERIS_TYPE>0</EPHEMERIS_TYPE><CLASSIFICATION_TYPE>U</CLASSIFICATION_TYPE><NORAD_CAT_ID>48985</NORAD_CAT_ID><ELEMENT_SET_NO>999</ELEMENT_SET_NO><REV_AT_EPOCH>13614</REV_AT_EPOCH><BSTAR>.12633E-3</BSTAR><MEAN_MOTION_DOT>.61E-6</MEAN_MOTION_DOT><MEAN_MOTION_DDOT>0</MEAN_MOTION_DDOT></tleParameters></data></segment></body></omm>
<omm id="CCSDS_OMM_VERS" version="2.0">
<header><CREATION_DATE/><ORIGINATOR/></header><body><segment><metadata><OBJECT_NAME>ONEWEB-0268</OBJECT_NAME><OBJECT_ID>2021-060V</OBJECT_ID><CENTER_NAME>EARTH</CENTER_NAME><REF_FRAME>TEME</REF_FRAME><TIME_SYSTEM>UTC</TIME_SYSTEM><MEAN_ELEMENT_THEORY>SGP4</MEAN_ELEMENT_THEORY></metadata><data><meanElements><EPOCH>2024-04-11T19:30:38.830752</EPOCH><MEAN_MOTION>13.16596793</MEAN_MOTION><ECCENTRICITY>.0001788</ECCENTRICITY><INCLINATION>87.9149</INCLINATION><RA_OF_ASC_NODE>27.2811</RA_OF_ASC_NODE><ARG_OF_PERICENTER>74.3476</ARG_OF_PERICENTER><MEAN_ANOMALY>285.7852</MEAN_ANOMALY></meanElements><tleParameters><EPHEMERIS_TYPE>0</EPHEMERIS_TYPE><CLASSIFICATION_TYPE>U</CLASSIFICATION_TYPE><NORAD_CAT_ID>48986</NORAD_CAT_ID><ELEMENT_SET_NO>999</ELEMENT_SET_NO><REV_AT_EPOCH>13506</REV_AT_EPOCH><BSTAR>.26311E-3</BSTAR><MEAN_MOTION_DOT>.113E-5</MEAN_MOTION_DOT><MEAN_MOTION_DDOT>0</MEAN_MOTION_DDOT></tleParameters></data></segment></body></omm>
<omm id="CCSDS_OMM_VERS" version="2.0">
<header><CREATION_DATE/><ORIGINATOR/></header><body><segment><metadata><OBJECT_NAME>ONEWEB-0269</OBJECT_NAME><OBJECT_ID>2021-060W</OBJECT_ID><CENTER_NAME>EARTH</CENTER_NAME><REF_FRAME>TEME</REF_FRAME><TIME_SYSTEM>UTC</TIME_SYSTEM><MEAN_ELEMENT_THEORY>SGP4</MEAN_ELEMENT_THEORY></metadata><data><meanElements><EPOCH>2024-04-11T20:52:43.608288</EPOCH><MEAN_MOTION>13.16592617</MEAN_MOTION><ECCENTRICITY>.0001968</ECCENTRICITY><INCLINATION>87.9154</INCLINATION><RA_OF_ASC_NODE>27.2933</RA_OF_ASC_NODE><ARG_OF_PERICENTER>76.6643</ARG_OF_PERICENTER><MEAN_ANOMALY>283.4707</MEAN_ANOMALY></meanElements><tleParameters><EPHEMERIS_TYPE>0</EPHEMERIS_TYPE><CLASSIFICATION_TYPE>U</CLASSIFICATION_TYPE><NORAD_CAT_ID>48987</NORAD_CAT_ID><ELEMENT_SET_NO>999</ELEMENT_SET_NO><REV_AT_EPOCH>13484</REV_AT_EPOCH><BSTAR>.1774E-3</BSTAR><MEAN_MOTION_DOT>.81E-6</MEAN_MOTION_DOT><MEAN_MOTION_DDOT>0</MEAN_MOTION_DDOT></tleParameters></data></segment></body></omm>
<omm id="CCSDS_OMM_VERS" version="2.0">
<header><CREATION_DATE/><ORIGINATOR/></header><body><segment><metadata><OBJECT_NAME>ONEWEB-0270</OBJECT_NAME><OBJECT_ID>2021-060X</OBJECT_ID><CENTER_NAME>EARTH</CENTER_NAME><REF_FRAME>TEME</REF_FRAME><TIME_SYSTEM>UTC</TIME_SYSTEM><MEAN_ELEMENT_THEORY>SGP4</MEAN_ELEMENT_THEORY></metadata><data><meanElements><EPOCH>2024-04-11T19:28:21.713088</EPOCH><MEAN_MOTION>13.16592268</MEAN_MOTION><ECCENTRICITY>.0001389</ECCENTRICITY><INCLINATION>87.9149</INCLINATION><RA_OF_ASC_NODE>27.2906</RA_OF_ASC_NODE><ARG_OF_PERICENTER>92.6692</ARG_OF_PERICENTER><MEAN_ANOMALY>267.4598</MEAN_ANOMALY></meanElements><tleParameters><EPHEMERIS_TYPE>0</EPHEMERIS_TYPE><CLASSIFICATION_TYPE>U</CLASSIFICATION_TYPE><NORAD_CAT_ID>48988</NORAD_CAT_ID><ELEMENT_SET_NO>999</ELEMENT_SET_NO><REV_AT_EPOCH>13487</REV_AT_EPOCH><BSTAR>.95458E-4</BSTAR><MEAN_MOTION_DOT>.49E-6</MEAN_MOTION_DOT><MEAN_MOTION_DDOT>0</MEAN_MOTION_DDOT></tleParameters></data></segment></body></omm>
<omm id="CCSDS_OMM_VERS" version="2.0">
<header><CREATION_DATE/><ORIGINATOR/></header><body><segment><metadata><OBJECT_NAME>ONEWEB-0271</OBJECT_NAME><OBJECT_ID>2021-060Y</OBJECT_ID><CENTER_NAME>EARTH</CENTER_NAME><REF_FRAME>TEME</REF_FRAME><TIME_SYSTEM>UTC</TIME_SYSTEM><MEAN_ELEMENT_THEORY>SGP4</MEAN_ELEMENT_THEORY></metadata><data><meanElements><EPOCH>2024-04-11T20:59:33.783648</EPOCH><MEAN_MOTION>13.16592623</MEAN_MOTION><ECCENTRICITY>.0001427</ECCENTRICITY><INCLINATION>87.9152</INCLINATION><RA_OF_ASC_NODE>27.2537</RA_OF_ASC_NODE><ARG_OF_PERICENTER>80.8789</ARG_OF_PERICENTER><MEAN_ANOMALY>279.2504</MEAN_ANOMALY></meanElements><tleParameters><EPHEMERIS_TYPE>0</EPHEMERIS_TYPE><CLASSIFICATION_TYPE>U</CLASSIFICATION_TYPE><NORAD_CAT_ID>48989</NORAD_CAT_ID><ELEMENT_SET_NO>999</ELEMENT_SET_NO><REV_AT_EPOCH>13488</REV_AT_EPOCH><BSTAR>-.12937E-4</BSTAR><MEAN_MOTION_DOT>.8E-7</MEAN_MOTION_DOT><MEAN_MOTION_DDOT>0</MEAN_MOTION_DDOT></tleParameters></data></segment></body></omm>
<omm id="CCSDS_OMM_VERS" version="2.0">
<header><CREATION_DATE/><ORIGINATOR/></header><body><segment><metadata><OBJECT_NAME>ONEWEB-0272</OBJECT_NAME><OBJECT_ID>2021-060Z</OBJECT_ID><CENTER_NAME>EARTH</CENTER_NAME><REF_FRAME>TEME</REF_FRAME><TIME_SYSTEM>UTC</TIME_SYSTEM><MEAN_ELEMENT_THEORY>SGP4</MEAN_ELEMENT_THEORY></metadata><data><meanElements><EPOCH>2024-04-12T08:28:06.252960</EPOCH><MEAN_MOTION>13.16593069</MEAN_MOTION><ECCENTRICITY>.0001567</ECCENTRICITY><INCLINATION>87.9151</INCLINATION><RA_OF_ASC_NODE>27.1869</RA_OF_ASC_NODE><ARG_OF_PERICENTER>78.6492</ARG_OF_PERICENTER><MEAN_ANOMALY>281.4815</MEAN_ANOMALY></meanElements><tleParameters><EPHEMERIS_TYPE>0</EPHEMERIS_TYPE><CLASSIFICATION_TYPE>U</CLASSIFICATION_TYPE><NORAD_CAT_ID>48990</NORAD_CAT_ID><ELEMENT_SET_NO>999</ELEMENT_SET_NO><REV_AT_EPOCH>13619</REV_AT_EPOCH><BSTAR>.22793E-5</BSTAR><MEAN_MOTION_DOT>.14E-6</MEAN_MOTION_DOT><MEAN_MOTION_DDOT>0</MEAN_MOTION_DDOT></tleParameters></data></segment></body></omm>

</ndm>
